NORAD_CAT_ID,OBJECT_NAME,OBJECT_TYPE,EPOCH,MEAN_MOTION,ECCENTRICITY,INCLINATION,RA_OF_ASC_NODE,ARG_OF_PERICENTER,MEAN_ANOMALY,BSTAR,MEAN_MOTION_DOT,MEAN_MOTION_DDOT,TLE_LINE0,TLE_LINE1,TLE_LINE2,SEMIMAJOR_AXIS,PERIOD,APOGEE,PERIGEE,DECAYED
55652.0,STARLINK-5487,PAYLOAD,2024-07-13 22:00:06,14.98326265,0.0002844,70.001,266.7194,268.893,91.1903,-8.6131e-05,-1.12e-05,0.0,0 STARLINK-5487,1 55652U 23021AA  24195.91673613 -.00001120  00000-0 -86131-4 0  9997,2 55652  70.0010 266.7194 0002844 268.8930  91.1903 14.98326265 78354,6950.204,96.107,574.046,570.093,0.0
55652.0,STARLINK-5487,PAYLOAD,2024-07-14 12:25:15,14.98482065,0.000394,69.9998,265.2037,261.5835,98.4878,-0.0026506,-0.00031704,0.0,0 STARLINK-5487,1 55652U 23021AA  24196.51753524 -.00031704  00000-0 -26506-2 0  9993,2 55652  69.9998 265.2037 0003940 261.5835  98.4878 14.98482065 78147,6949.723,96.097,574.326,568.849,0.0
55652.0,STARLINK-5487,PAYLOAD,2024-07-14 14:01:22,14.98473993,0.0003919,69.9998,265.0354,262.2354,97.836,-0.0025182,-0.00030125,0.0,0 STARLINK-5487,1 55652U 23021AA  24196.58429245 -.00030125  00000-0 -25182-2 0  9995,2 55652  69.9998 265.0354 0003919 262.2354  97.8360 14.98473993 78450,6949.748,96.098,574.336,568.889,0.0
55652.0,STARLINK-5487,PAYLOAD,2024-07-14 20:25:58,14.98338694,0.0003389,69.9992,264.3611,270.1543,89.9228,-9.3799e-05,-1.212e-05,0.0,0 STARLINK-5487,1 55652U 23021AA  24196.85136633 -.00001212  00000-0 -93799-4 0  9997,2 55652  69.9992 264.3611 0003389 270.1543  89.9228 14.98338694 78195,6950.166,96.106,574.386,569.676,0.0
55652.0,STARLINK-5487,PAYLOAD,2024-07-15 04:26:39,14.98317198,0.0003356,69.9994,263.5201,271.8074,88.27,6.3095e-05,6.6e-06,0.0,0 STARLINK-5487,1 55652U 23021AA  24197.18517693  .00000660  00000-0  63095-4 0  9993,2 55652  69.9994 263.5201 0003356 271.8074  88.2700 14.98317198 78243,6950.232,96.108,574.43,569.765,0.0
55652.0,STARLINK-5487,PAYLOAD,2024-07-15 14:03:27,14.98321884,0.0003309,69.9996,262.5095,271.6569,88.4211,0.00010409,1.149e-05,0.0,0 STARLINK-5487,1 55652U 23021AA  24197.58573543  .00001149  00000-0  10409-3 0  9996,2 55652  69.9996 262.5095 0003309 271.6569  88.4211 14.98321884 78606,6950.218,96.108,574.383,569.783,0.0
55652.0,STARLINK-5487,PAYLOAD,2024-07-15 22:04:07,14.98324238,0.0003443,69.9991,261.6676,271.3138,88.7626,6.0688e-05,6.31e-06,0.0,0 STARLINK-5487,1 55652U 23021AA  24197.91953568  .00000631  00000-0  60688-4 0  9992,2 55652  69.9991 261.6676 0003443 271.3138  88.7626 14.98324238 78658,6950.211,96.107,574.469,569.683,0.0
55652.0,STARLINK-5487,PAYLOAD,2024-07-16 04:28:40,14.9832744,0.0003434,69.999,260.9942,271.3861,88.6905,4.1849e-05,4.06e-06,0.0,0 STARLINK-5487,1 55652U 23021AA  24198.18657498  .00000406  00000-0  41849-4 0  9993,2 55652  69.9990 260.9942 0003434 271.3861  88.6905 14.98327440 78396,6950.201,96.107,574.453,569.679,0.0
55652.0,STARLINK-5487,PAYLOAD,2024-07-16 14:05:27,14.98335787,0.000345,69.999,259.9844,270.8733,89.203,9.312e-05,1.018e-05,0.0,0 STARLINK-5487,1 55652U 23021AA  24198.58712841  .00001018  00000-0  93120-4 0  9990,2 55652  69.9990 259.9844 0003450 270.8733  89.2030 14.98335787 78754,6950.175,96.107,574.438,569.642,0.0
55652.0,STARLINK-5487,PAYLOAD,2024-07-17 04:30:41,14.98317177,0.0003584,69.9992,258.4685,266.2264,93.8485,0.00015493,1.755e-05,0.0,0 STARLINK-5487,1 55652U 23021AA  24199.18797812  .00001755  00000-0  15493-3 0  9992,2 55652  69.9992 258.4685 0003584 266.2264  93.8485 14.98317177 78544,6950.233,96.108,574.589,569.607,0.0
55652.0,STARLINK-5487,PAYLOAD,2024-07-17 12:31:21,14.9832959,0.0003375,69.9991,257.627,270.6927,89.3845,9.6438e-05,1.058e-05,0.0,0 STARLINK-5487,1 55652U 23021AA  24199.52177387  .00001058  00000-0  96438-4 0  9994,2 55652  69.9991 257.6270 0003375 270.6927  89.3845 14.98329590 78594,6950.194,96.107,574.405,569.713,0.0
55652.0,STARLINK-5487,PAYLOAD,2024-07-17 14:07:29,14.98331528,0.0003363,69.9991,257.4587,270.7765,89.3009,8.1734e-05,8.82e-06,0.0,0 STARLINK-5487,1 55652U 23021AA  24199.58853298  .00000882  00000-0  81734-4 0  9999,2 55652  69.9991 257.4587 0003363 270.7765  89.3009 14.98331528 78902,6950.188,96.107,574.391,569.716,0.0
55652.0,STARLINK-5487,PAYLOAD,2024-07-18 14:09:30,14.98333702,0.0003146,69.9995,254.9354,267.1148,92.9651,2.9245e-05,2.56e-06,0.0,0 STARLINK-5487,1 55652U 23021AA  24200.58993264  .00000256  00000-0  29245-4 0  9994,2 55652  69.9995 254.9354 0003146 267.1148  92.9651 14.98333702 79050,6950.181,96.107,574.233,569.86,0.0
55652.0,STARLINK-5487,PAYLOAD,2024-07-19 12:35:22,14.98332864,0.0003217,69.9991,252.5781,268.7924,91.2867,5.5833e-05,5.73e-06,0.0,0 STARLINK-5487,1 55652U 23021AA  24201.52457074  .00000573  00000-0  55833-4 0  9997,2 55652  69.9991 252.5781 0003217 268.7924  91.2867 14.98332864 78892,6950.184,96.107,574.285,569.813,0.0
55652.0,STARLINK-5487,PAYLOAD,2024-07-19 20:36:03,14.98333308,0.0003229,69.9991,251.7364,269.1419,90.937,4.99e-05,5.02e-06,0.0,0 STARLINK-5487,1 55652U 23021AA  24201.85836987  .00000502  00000-0  49900-4 0  9997,2 55652  69.9991 251.7364 0003229 269.1419  90.9370 14.98333308 79246,6950.183,96.107,574.292,569.803,0.0
55652.0,STARLINK-5487,PAYLOAD,2024-07-20 12:37:24,14.98330666,0.0003179,69.9992,250.0535,269.5937,90.4858,2.2521e-05,1.76e-06,0.0,0 STARLINK-5487,1 55652U 23021AA  24202.52597233  .00000176  00000-0  22521-4 0  9997,2 55652  69.9992 250.0535 0003179 269.5937  90.4858 14.98330666 79040,6950.191,96.107,574.265,569.846,0.0
55652.0,STARLINK-5487,PAYLOAD,2024-07-20 20:38:04,14.98328719,0.0003182,69.9992,249.2119,270.318,89.7615,-2.5104e-05,-3.93e-06,0.0,0 STARLINK-5487,1 55652U 23021AA  24202.85977475 -.00000393  00000-0 -25104-4 0  9996,2 55652  69.9992 249.2119 0003182 270.3180  89.7615 14.98328719 79398,6950.197,96.107,574.273,569.85,0.0
55652.0,STARLINK-5487,PAYLOAD,2024-07-21 12:39:25,14.98329356,0.0003208,69.9991,247.5286,269.9977,90.0814,-1.3221e-05,-2.51e-06,0.0,0 STARLINK-5487,1 55652U 23021AA  24203.52737431 -.00000251  00000-0 -13221-4 0  9997,2 55652  69.9991 247.5286 0003208 269.9977  90.0814 14.98329356 79192,6950.195,96.107,574.29,569.83,0.0
55652.0,STARLINK-5487,PAYLOAD,2024-07-22 12:41:25,14.983347,0.0003307,69.9985,245.0019,268.3189,91.7592,8.4239e-05,9.12e-06,0.0,0 STARLINK-5487,1 55652U 23021AA  24204.52876712  .00000912  00000-0  84239-4 0  9993,2 55652  69.9985 245.0019 0003307 268.3189  91.7592 14.98334700 79347,6950.178,96.107,574.342,569.745,0.0
55652.0,STARLINK-5487,PAYLOAD,2024-07-23 09:31:10,14.98333572,0.0003364,69.9983,242.8137,268.5207,91.5567,9.2905e-05,1.016e-05,0.0,0 STARLINK-5487,1 55652U 23021AA  24205.39664658  .00001016  00000-0  92905-4 0  9998,2 55652  69.9983 242.8137 0003364 268.5207  91.5567 14.98333572 79770,6950.182,96.107,574.385,569.709,0.0
55652.0,STARLINK-5487,PAYLOAD,2024-07-24 04:44:47,14.98328265,0.0003311,69.9982,240.7937,270.0342,90.0437,-3.7317e-05,-5.38e-06,0.0,0 STARLINK-5487,1 55652U 23021AA  24206.19777245 -.00000538  00000-0 -37317-4 0  9990,2 55652  69.9982 240.7937 0003311 270.0342  90.0437 14.98328265 79597,6950.198,96.107,574.364,569.762,0.0
55652.0,STARLINK-5487,PAYLOAD,2024-07-24 09:33:11,14.98327052,0.0003314,69.9984,240.2888,269.8899,90.1881,-4.9027e-05,-6.78e-06,0.0,0 STARLINK-5487,1 55652U 23021AA  24206.39805366 -.00000678  00000-0 -49027-4 0  9994,2 55652  69.9984 240.2888 0003314 269.8899  90.1881 14.98327052 79929,6950.202,96.107,574.37,569.764,0.0
55652.0,STARLINK-5487,PAYLOAD,2024-07-25 04:46:48,14.9832494,0.0003638,69.9974,238.2675,273.8815,86.1928,-7.3524e-05,-9.7e-06,0.0,0 STARLINK-5487,1 55652U 23021AA  24207.19917643 -.00000970  00000-0 -73524-4 0  9999,2 55652  69.9974 238.2675 0003638 273.8815  86.1928 14.98324940 79741,6950.209,96.107,574.602,569.545,0.0
55652.0,STARLINK-5487,PAYLOAD,2024-07-25 06:22:56,14.98324283,0.0003659,69.9974,238.0992,273.8032,86.2709,-7.9988e-05,-1.047e-05,0.0,0 STARLINK-5487,1 55652U 23021AA  24207.26593718 -.00001047  00000-0 -79988-4 0  9996,2 55652  69.9974 238.0992 0003659 273.8032  86.2709 14.98324283 80059,6950.211,96.107,574.619,569.532,0.0
55652.0,STARLINK-5487,PAYLOAD,2024-07-25 09:35:13,14.98322092,0.0003667,69.9975,237.7627,273.3689,86.7051,-9.8754e-05,-1.271e-05,0.0,0 STARLINK-5487,1 55652U 23021AA  24207.39945960 -.00001271  00000-0 -98754-4 0  9991,2 55652  69.9975 237.7627 0003667 273.3689  86.7051 14.98322092 80076,6950.217,96.108,574.631,569.534,0.0
55652.0,STARLINK-5487,PAYLOAD,2024-07-26 04:48:49,14.98331517,0.000408,69.9973,235.7423,280.2399,79.83,9.7984e-05,1.076e-05,0.0,0 STARLINK-5487,1 55652U 23021AA  24208.20056893  .00001076  00000-0  97984-4 0  9995,2 55652  69.9973 235.7423 0004080 280.2399  79.8300 14.98331517 79891,6950.188,96.107,574.889,569.218,0.0
55652.0,STARLINK-5487,PAYLOAD,2024-07-26 09:37:13,14.98333747,0.0003377,69.9983,235.2383,270.3532,89.724,0.00013448,1.512e-05,0.0,0 STARLINK-5487,1 55652U 23021AA  24208.40084551  .00001512  00000-0  13448-3 0  9996,2 55652  69.9983 235.2383 0003377 270.3532  89.7240 14.98333747 80228,6950.181,96.107,574.393,569.699,0.0
55652.0,STARLINK-5487,PAYLOAD,2024-07-26 19:14:01,14.98332469,0.0003387,69.9987,234.2295,275.586,84.4912,7.7096e-05,8.27e-06,0.0,0 STARLINK-5487,1 55652U 23021AA  24208.80140766  .00000827  00000-0  77096-4 0  9999,2 55652  69.9987 234.2295 0003387 275.5860  84.4912 14.98332469 80289,6950.185,96.107,574.404,569.696,0.0
55652.0,STARLINK-5487,PAYLOAD,2024-07-27 04:50:50,14.98327553,0.000329,69.9983,233.2175,273.7308,86.3475,0.00011809,1.316e-05,0.0,0 STARLINK-5487,1 55652U 23021AA  24209.20196925  .00001316  00000-0  11809-3 0  9995,2 55652  69.9983 233.2175 0003290 273.7308  86.3475 14.98327553 80048,6950.2,96.107,574.352,569.779,0.0
55652.0,STARLINK-5487,PAYLOAD,2024-07-27 06:26:58,14.98327705,0.0003293,69.9983,233.0492,273.7051,86.3732,0.0001169,1.302e-05,0.0,0 STARLINK-5487,1 55652U 23021AA  24209.26872925  .00001302  00000-0  11690-3 0  9995,2 55652  69.9983 233.0492 0003293 273.7051  86.3732 14.98327705 80355,6950.2,96.107,574.354,569.776,0.0
